CCSDS_OMM_VERS = 2.0
CREATION_DATE  = 
ORIGINATOR     = 

OBJECT_NAME    = SL-16 R/B
OBJECT_ID      = 1993-016B
CENTER_NAME    = EARTH
REF_FRAME      = TEME
TIME_SYSTEM    = UTC
MEAN_ELEMENT_THEORY = SGP/SGP4

EPOCH          = 2026-02-21T22:45:26.468928
MEAN_MOTION    = 14.15299916
ECCENTRICITY   = .00107746
INCLINATION    = 71.0042
RA_OF_ASC_NODE = 248.2444
ARG_OF_PERICENTER = 335.7092
MEAN_ANOMALY   = 24.3522

EPHEMERIS_TYPE = 0
CLASSIFICATION_TYPE = U
NORAD_CAT_ID   = 22566
ELEMENT_SET_NO = 999
REV_AT_EPOCH   = 69994
BSTAR          = .7198415E-5
MEAN_MOTION_DOT = -.34E-6
MEAN_MOTION_DDOT = 0

CCSDS_OMM_VERS = 2.0
CREATION_DATE  = 
ORIGINATOR     = 

OBJECT_NAME    = COSMOS 2242
OBJECT_ID      = 1993-024A
CENTER_NAME    = EARTH
REF_FRAME      = TEME
TIME_SYSTEM    = UTC
MEAN_ELEMENT_THEORY = SGP/SGP4

EPOCH          = 2026-02-21T17:20:11.626656
MEAN_MOTION    = 14.96477927
ECCENTRICITY   = .00165242
INCLINATION    = 82.5169
RA_OF_ASC_NODE = 281.9911
ARG_OF_PERICENTER = 4.4760
MEAN_ANOMALY   = 355.6607

EPHEMERIS_TYPE = 0
CLASSIFICATION_TYPE = U
NORAD_CAT_ID   = 22626
ELEMENT_SET_NO = 999
REV_AT_EPOCH   = 77800
BSTAR          = .13862526E-3
MEAN_MOTION_DOT = .1603E-4
MEAN_MOTION_DDOT = 0

CCSDS_OMM_VERS = 2.0
CREATION_DATE  = 
ORIGINATOR     = 

OBJECT_NAME    = SL-16 R/B
OBJECT_ID      = 1993-059B
CENTER_NAME    = EARTH
REF_FRAME      = TEME
TIME_SYSTEM    = UTC
MEAN_ELEMENT_THEORY = SGP/SGP4

EPOCH          = 2026-02-21T22:46:35.743584
MEAN_MOTION    = 14.17227725
ECCENTRICITY   = .00191444
INCLINATION    = 70.9897
RA_OF_ASC_NODE = 44.3196
ARG_OF_PERICENTER = 238.1837
MEAN_ANOMALY   = 121.7423

EPHEMERIS_TYPE = 0
CLASSIFICATION_TYPE = U
NORAD_CAT_ID   = 22803
ELEMENT_SET_NO = 999
REV_AT_EPOCH   = 67730
BSTAR          = .67510288E-4
MEAN_MOTION_DOT = .88E-6
MEAN_MOTION_DDOT = 0

CCSDS_OMM_VERS = 2.0
CREATION_DATE  = 
ORIGINATOR     = 

OBJECT_NAME    = ARIANE 40 R/B
OBJECT_ID      = 1993-061H
CENTER_NAME    = EARTH
REF_FRAME      = TEME
TIME_SYSTEM    = UTC
MEAN_ELEMENT_THEORY = SGP/SGP4

EPOCH          = 2026-02-21T18:39:07.951104
MEAN_MOTION    = 14.32851621
ECCENTRICITY   = .00099996
INCLINATION    = 98.4953
RA_OF_ASC_NODE = 121.9763
ARG_OF_PERICENTER = 336.6336
MEAN_ANOMALY   = 23.4392

EPHEMERIS_TYPE = 0
CLASSIFICATION_TYPE = U
NORAD_CAT_ID   = 22830
ELEMENT_SET_NO = 999
REV_AT_EPOCH   = 69182
BSTAR          = .74512569E-4
MEAN_MOTION_DOT = .16E-5
MEAN_MOTION_DDOT = 0

CCSDS_OMM_VERS = 2.0
CREATION_DATE  = 
ORIGINATOR     = 

OBJECT_NAME    = COSMOS 2278
OBJECT_ID      = 1994-023A
CENTER_NAME    = EARTH
REF_FRAME      = TEME
TIME_SYSTEM    = UTC
MEAN_ELEMENT_THEORY = SGP/SGP4

EPOCH          = 2026-02-21T19:49:51.823200
MEAN_MOTION    = 14.14367195
ECCENTRICITY   = .00071926
INCLINATION    = 71.0517
RA_OF_ASC_NODE = 208.2847
ARG_OF_PERICENTER = 45.0019
MEAN_ANOMALY   = 315.1685

EPHEMERIS_TYPE = 0
CLASSIFICATION_TYPE = U
NORAD_CAT_ID   = 23087
ELEMENT_SET_NO = 999
REV_AT_EPOCH   = 64256
BSTAR          = .19017127E-3
MEAN_MOTION_DOT = .317E-5
MEAN_MOTION_DDOT = 0

CCSDS_OMM_VERS = 2.0
CREATION_DATE  = 
ORIGINATOR     = 

OBJECT_NAME    = SL-16 R/B
OBJECT_ID      = 1994-023B
CENTER_NAME    = EARTH
REF_FRAME      = TEME
TIME_SYSTEM    = UTC
MEAN_ELEMENT_THEORY = SGP/SGP4

EPOCH          = 2026-02-21T14:19:56.040960
MEAN_MOTION    = 14.15010894
ECCENTRICITY   = .0004989
INCLINATION    = 70.9991
RA_OF_ASC_NODE = 104.6855
ARG_OF_PERICENTER = 300.4329
MEAN_ANOMALY   = 59.6300

EPHEMERIS_TYPE = 0
CLASSIFICATION_TYPE = U
NORAD_CAT_ID   = 23088
ELEMENT_SET_NO = 999
REV_AT_EPOCH   = 64381
BSTAR          = .15761E-3
MEAN_MOTION_DOT = .258E-5
MEAN_MOTION_DDOT = 0

CCSDS_OMM_VERS = 2.0
CREATION_DATE  = 
ORIGINATOR     = 

OBJECT_NAME    = SL-16 R/B
OBJECT_ID      = 1994-074B
CENTER_NAME    = EARTH
REF_FRAME      = TEME
TIME_SYSTEM    = UTC
MEAN_ELEMENT_THEORY = SGP/SGP4

EPOCH          = 2026-02-21T23:12:15.160896
MEAN_MOTION    = 14.79387369
ECCENTRICITY   = .00051264
INCLINATION    = 97.7132
RA_OF_ASC_NODE = 84.4197
ARG_OF_PERICENTER = 273.5818
MEAN_ANOMALY   = 149.4678

EPHEMERIS_TYPE = 0
CLASSIFICATION_TYPE = U
NORAD_CAT_ID   = 23343
ELEMENT_SET_NO = 999
REV_AT_EPOCH   = 68492
BSTAR          = .58723357E-4
MEAN_MOTION_DOT = .388E-5
MEAN_MOTION_DDOT = 0

CCSDS_OMM_VERS = 2.0
CREATION_DATE  = 
ORIGINATOR     = 

OBJECT_NAME    = SL-16 R/B
OBJECT_ID      = 1994-077B
CENTER_NAME    = EARTH
REF_FRAME      = TEME
TIME_SYSTEM    = UTC
MEAN_ELEMENT_THEORY = SGP/SGP4

EPOCH          = 2026-02-21T22:31:15.713184
MEAN_MOTION    = 14.15563909
ECCENTRICITY   = .00038291
INCLINATION    = 70.9840
RA_OF_ASC_NODE = 25.6243
ARG_OF_PERICENTER = 228.3700
MEAN_ANOMALY   = 131.7095

EPHEMERIS_TYPE = 0
CLASSIFICATION_TYPE = U
NORAD_CAT_ID   = 23405
ELEMENT_SET_NO = 999
REV_AT_EPOCH   = 61400
BSTAR          = .31089209E-4
MEAN_MOTION_DOT = .13E-6
MEAN_MOTION_DDOT = 0

CCSDS_OMM_VERS = 2.0
CREATION_DATE  = 
ORIGINATOR     = 

OBJECT_NAME    = ARIANE 40+ R/B
OBJECT_ID      = 1995-021B
CENTER_NAME    = EARTH
REF_FRAME      = TEME
TIME_SYSTEM    = UTC
MEAN_ELEMENT_THEORY = SGP/SGP4

EPOCH          = 2026-02-21T18:33:11.251296
MEAN_MOTION    = 14.39759631
ECCENTRICITY   = .00068842
INCLINATION    = 98.4531
RA_OF_ASC_NODE = 124.4686
ARG_OF_PERICENTER = 180.4169
MEAN_ANOMALY   = 291.4241

EPHEMERIS_TYPE = 0
CLASSIFICATION_TYPE = U
NORAD_CAT_ID   = 23561
ELEMENT_SET_NO = 999
REV_AT_EPOCH   = 61695
BSTAR          = .88646523E-4
MEAN_MOTION_DOT = .234E-5
MEAN_MOTION_DDOT = 0

CCSDS_OMM_VERS = 2.0
CREATION_DATE  = 
ORIGINATOR     = 

OBJECT_NAME    = SL-16 R/B
OBJECT_ID      = 1995-058B
CENTER_NAME    = EARTH
REF_FRAME      = TEME
TIME_SYSTEM    = UTC
MEAN_ELEMENT_THEORY = SGP/SGP4

EPOCH          = 2026-02-21T20:58:25.788576
MEAN_MOTION    = 14.15495015
ECCENTRICITY   = .00113497
INCLINATION    = 71.0201
RA_OF_ASC_NODE = 213.4579
ARG_OF_PERICENTER = 153.4788
MEAN_ANOMALY   = 206.6918

EPHEMERIS_TYPE = 0
CLASSIFICATION_TYPE = U
NORAD_CAT_ID   = 23705
ELEMENT_SET_NO = 999
REV_AT_EPOCH   = 56561
BSTAR          = -.85615628E-4
MEAN_MOTION_DOT = -.215E-5
MEAN_MOTION_DDOT = 0

CCSDS_OMM_VERS = 2.0
CREATION_DATE  = 
ORIGINATOR     = 

OBJECT_NAME    = SL-16 R/B
OBJECT_ID      = 1996-051B
CENTER_NAME    = EARTH
REF_FRAME      = TEME
TIME_SYSTEM    = UTC
MEAN_ELEMENT_THEORY = SGP/SGP4

EPOCH          = 2026-02-21T21:03:00.616608
MEAN_MOTION    = 14.12411102
ECCENTRICITY   = .00165363
INCLINATION    = 70.7580
RA_OF_ASC_NODE = 208.7065
ARG_OF_PERICENTER = 170.8437
MEAN_ANOMALY   = 189.2987

EPHEMERIS_TYPE = 0
CLASSIFICATION_TYPE = U
NORAD_CAT_ID   = 24298
ELEMENT_SET_NO = 999
REV_AT_EPOCH   = 51941
BSTAR          = .73819941E-4
MEAN_MOTION_DOT = .87E-6
MEAN_MOTION_DDOT = 0

CCSDS_OMM_VERS = 2.0
CREATION_DATE  = 
ORIGINATOR     = 

OBJECT_NAME    = ORBVIEW 2 (SEASTAR)
OBJECT_ID      = 1997-037A
CENTER_NAME    = EARTH
REF_FRAME      = TEME
TIME_SYSTEM    = UTC
MEAN_ELEMENT_THEORY = SGP/SGP4

EPOCH          = 2026-02-21T22:39:18.048096
MEAN_MOTION    = 14.35481340
ECCENTRICITY   = .00031714
INCLINATION    = 98.8538
RA_OF_ASC_NODE = 216.8408
ARG_OF_PERICENTER = 103.7107
MEAN_ANOMALY   = 256.4431

EPHEMERIS_TYPE = 0
CLASSIFICATION_TYPE = U
NORAD_CAT_ID   = 24883
ELEMENT_SET_NO = 999
REV_AT_EPOCH   = 50621
BSTAR          = .99738309E-4
MEAN_MOTION_DOT = .24E-5
MEAN_MOTION_DDOT = 0

