SL-16 R/B               
1 22566U 93016B   26052.94822302 -.00000034  00000+0  71984-5 0  9996
2 22566  71.0042 248.2444 0010774 335.7092  24.3522 14.15299916699945
COSMOS 2242             
1 22626U 93024A   26052.72235679  .00001603  00000+0  13863-3 0  9995
2 22626  82.5169 281.9911 0016524   4.4760 355.6607 14.96477927778001
SL-16 R/B               
1 22803U 93059B   26052.94902481  .00000088  00000+0  67510-4 0  9991
2 22803  70.9897  44.3196 0019144 238.1837 121.7423 14.17227725677306
ARIANE 40 R/B           
1 22830U 93061H   26052.77717536  .00000160  00000+0  74513-4 0  9992
2 22830  98.4953 121.9763 0009999 336.6336  23.4392 14.32851621691822
COSMOS 2278             
1 23087U 94023A   26052.82629425  .00000317  00000+0  19017-3 0  9992
2 23087  71.0517 208.2847 0007192  45.0019 315.1685 14.14367195642565
SL-16 R/B               
1 23088U 94023B   26052.59717640  .00000258  00000+0  15761-3 0  9990
2 23088  70.9991 104.6855 0004989 300.4329  59.6300 14.15010894643816
SL-16 R/B               
1 23343U 94074B   26052.96684214  .00000388  00000+0  58723-4 0  9991
2 23343  97.7132  84.4197 0005126 273.5818 149.4678 14.79387369684922
SL-16 R/B               
1 23405U 94077B   26052.93837631  .00000013  00000+0  31089-4 0  9994
2 23405  70.9840  25.6243 0003829 228.3700 131.7095 14.15563909614000
ARIANE 40+ R/B          
1 23561U 95021B   26052.77304689  .00000234  00000+0  88647-4 0  9998
2 23561  98.4531 124.4686 0006884 180.4169 291.4241 14.39759631616953
SL-16 R/B               
1 23705U 95058B   26052.87390959 -.00000215  00000+0 -85616-4 0  9998
2 23705  71.0201 213.4579 0011349 153.4788 206.6918 14.15495015565615
SL-16 R/B               
1 24298U 96051B   26052.87709047  .00000087  00000+0  73820-4 0  9991
2 24298  70.7580 208.7065 0016536 170.8437 189.2987 14.12411102519414
ORBVIEW 2 (SEASTAR)     
1 24883U 97037A   26052.94395889  .00000240  00000+0  99738-4 0  9996
2 24883  98.8538 216.8408 0003171 103.7107 256.4431 14.35481340506210
